format  = 'OEF1.1'		! file format
rectype = ML			! record type: 1L = one line; ML = multi line
refsys  = ECLM J2000		! default reference system (optional)
END_OF_HEADER
! Masses from Hilton, J. L. 1997, New Asteroid Ephemerides for the Astronomical Almanac 
! Equinoctial elements: a, e*sin(LP), e*cos(LP), tan(i/2)*sin(LN), tan(i/2)*cos(LN), mean long.
1
 EQU   2.76797237359841E+00   0.034426519165439  -0.067511511650668    0.091381545627849    0.015575501022140 291.6435152172815
 MJD     57200.000000000 TDT
 MAS 4.76E-10
2
 EQU   2.77200363186248E+00   0.193738256571571  -0.126092699293399    0.037737681604495   -0.311489200048374 243.9767409485305
 MJD     57200.000000000 TDT
 MAS 1.08E-10
3
 EQU   2.67107348059903E+00   0.217567734050433   0.134585944388473    0.020037792361975   -0.112039609067423 136.4750912827241
 MJD     57200.000000000 TDT
 MAS 1.49E-11
4
 EQU   2.36191315269369E+00  -0.085822131717074  -0.022934809336758    0.060575983321295   -0.014934592067594 330.2108149423029
 MJD     57200.000000000 TDT
 MAS 1.34E-10
6
 EQU   2.42603962355601E+00   0.062901989761811   0.191437262793037    0.085409902880283   -0.097231956847303  99.5072940608304
 MJD     57200.000000000 TDT
 MAS 7.0E-12
7
 EQU   2.38580372904182E+00   0.163412403960685   0.163435464448830   -0.047435341023398   -0.008718102387898 170.6880417161356
 MJD     57200.000000000 TDT
 MAS 6.48E-12
10
 EQU   3.14211585113378E+00  -0.094539266646377  -0.064934704585242   -0.032589565638042    0.007771260945854 139.9806093489846
 MJD     57200.000000000 TDT
 MAS 4.36E-11
15
 EQU   2.64392311624806E+00   0.095733585732134   0.161073739190724   -0.094492764281550    0.040471471173418 354.1122484121925
 MJD     57200.000000000 TDT
 MAS 1.58E-11
16
 EQU   2.92216662545685E+00   0.040694087844909   0.129948158715759    0.013412492418144   -0.023491575340566  31.5040202898719
 MJD     57200.000000000 TDT
 MAS 1.36E-11
29
 EQU   2.55496039722878E+00   0.061319953059009   0.037752598168313   -0.003321571612331    0.053088729415504   6.1340530295313
 MJD     57200.000000000 TDT
 MAS 6.48E-12
52
 EQU   3.09457446981942E+00   0.099140201645602  -0.042252249250649    0.051016786954639   -0.040913169181835  96.0489818383081
 MJD     57200.000000000 TDT
 MAS 1.20E-11
65
 EQU   3.42887875393028E+00  -0.108414583965108  -0.023048237832315    0.012830057413233   -0.028330360668899 301.9294143329348
 MJD     57200.000000000 TDT
 MAS 6.86E-12
87
 EQU   3.47949750727828E+00  -0.036336056544328   0.084499516980292    0.091080878189533    0.027744881684954 216.9565021686288
 MJD     57200.000000000 TDT
 MAS 7.46E-12
88
 EQU   2.76727879594949E+00  -0.120876614310652   0.111060739083965   -0.045230014874865    0.005296202906241  62.4672229763636
 MJD     57200.000000000 TDT
 MAS 7.69E-12
511
 EQU   3.16359452868347E+00   0.187700865125588   0.015155217273154    0.133444915162104   -0.042373532600901 173.7401581381759
 MJD     57200.000000000 TDT
 MAS 1.70E-11
704
 EQU   3.05703301070883E+00   0.041474063352450   0.148575052469586   -0.149758315202898    0.027213011195540 217.8384033070801
 MJD     57200.000000000 TDT
 MAS 1.65E-11
134340
 EQU   3.94736176935244E+01  -0.172608072501065  -0.180987977423101    0.141540739764277   -0.052322641272606 261.1880870732787
 MJD     57200.000000000 TDT
 MAS 7.36E-09